ONEWEB-0293             
1 49082U 21075H   24157.74697648  .00000086  00000+0  18873-3 0  9991
2 49082  87.9162 153.4751 0002079  79.8931 280.2435 13.17652132135991
ONEWEB-0294             
1 49083U 21075J   24157.92236969  .00000263  00000+0  69774-3 0  9990
2 49083  87.8926 138.2613 0002195  67.4704 292.6657 13.12304411137340
ONEWEB-0295             
1 49084U 21075K   24157.74856858  .00000104  00000+0  23441-3 0  9991
2 49084  87.9163 153.4521 0001693  77.7314 282.4007 13.17647464135959
ONEWEB-0297             
1 49086U 21075M   24157.70624897  .00000411  00000+0  11049-2 0  9996
2 49086  87.8937 138.3110 0001970  87.7345 272.4009 13.12579186137928
ONEWEB-0298             
1 49087U 21075N   24157.75174784  .00000047  00000+0  87933-4 0  9999
2 49087  87.9161 153.4701 0001839  89.8044 270.3298 13.17650851135981
ONEWEB-0299             
1 49088U 21075P   24157.75331390  .00000025  00000+0  32113-4 0  9994
2 49088  87.9156 153.4397 0001742  86.3846 273.7484 13.17647105135962
